{
    "links": {
        "self": "http://www.neowsapp.com/rest/v1/neo/3653411?api_key=iIulBulltgU6a56xZRHN4H3l9WmuAYTsLGpBGhQ2"
    },
    "id": "3653411",
    "neo_reference_id": "3653411",
    "name": "(2013 VH2)",
    "designation": "2013 VH2",
    "nasa_jpl_url": "http://ssd.jpl.nasa.gov/sbdb.cgi?sstr=3653411",
    "absolute_magnitude_h": 27.4,
    "estimated_diameter": {
        "kilometers": {
            "estimated_diameter_min": 0.0088014652,
            "estimated_diameter_max": 0.0196806745
        },
        "meters": {
            "estimated_diameter_min": 8.801465209,
            "estimated_diameter_max": 19.6806745089
        },
        "miles": {
            "estimated_diameter_min": 0.0054689752,
            "estimated_diameter_max": 0.0122290004
        },
        "feet": {
            "estimated_diameter_min": 28.8761991163,
            "estimated_diameter_max": 64.5691441559
        }
    },
    "is_potentially_hazardous_asteroid": false,
    "close_approach_data": [
        {
            "close_approach_date": "2013-11-07",
            "close_approach_date_full": "2013-Nov-07 13:09",
            "epoch_date_close_approach": 1383829740000,
            "relative_velocity": {
                "kilometers_per_second": "8.1786655064",
                "kilometers_per_hour": "29443.1958229093",
                "miles_per_hour": "18294.8568711849"
            },
            "miss_distance": {
                "astronomical": "0.0219090177",
                "lunar": "8.5226078853",
                "kilometers": "3277542.381712299",
                "miles": "2036570.3989717662"
            },
            "orbiting_body": "Earth"
        }
    ],
    "orbital_data": {
        "orbit_id": "5",
        "orbit_determination_date": "2017-04-06 08:43:52",
        "first_observation_date": "2013-11-02",
        "last_observation_date": "2013-11-06",
        "data_arc_in_days": 4,
        "observations_used": 26,
        "orbit_uncertainty": "8",
        "minimum_orbit_intersection": ".0179742",
        "jupiter_tisserand_invariant": "3.191",
        "epoch_osculation": "2456599.5",
        "eccentricity": ".5993491338160467",
        "semi_major_axis": "2.495855714510291",
        "inclination": "3.829359152406624",
        "ascending_node_longitude": "221.6655783352748",
        "orbital_period": "1440.216027283521",
        "perihelion_distance": ".9999667538887177",
        "perihelion_argument": "197.7494191130828",
        "aphelion_distance": "3.991744675131865",
        "perihelion_time": "2456615.261657135336",
        "mean_anomaly": "356.0601767642988",
        "mean_motion": ".2499625008888547",
        "equinox": "J2000",
        "orbit_class": {
            "orbit_class_type": "APO",
            "orbit_class_description": "Near-Earth asteroid orbits which cross the Earth’s orbit similar to that of 1862 Apollo",
            "orbit_class_range": "a (semi-major axis) > 1.0 AU; q (perihelion) < 1.017 AU"
        }
    },
    "is_sentry_object": false
}